OBJECT_NAME,OBJECT_ID,EPOCH,MEAN_MOTION,ECCENTRICITY,INCLINATION,RA_OF_ASC_NODE,ARG_OF_PERICENTER,MEAN_ANOMALY,EPHEMERIS_TYPE,CLASSIFICATION_TYPE,NORAD_CAT_ID,ELEMENT_SET_NO,REV_AT_EPOCH,BSTAR,MEAN_MOTION_DOT,MEAN_MOTION_DDOT
STARLINK-30176,2023-107W,2025-07-15T15:49:34.093632,15.02538027,.0001544,43.0027,186.4258,274.6856,85.3810,0,U,57477,999,10946,.36662E-4,.292E-5,0
JUPITER 3 (ECHOSTAR 24),2023-108A,2025-07-14T10:50:37.695552,1.00271942,.0001446,0.0139,45.6556,73.5131,240.8409,0,U,57479,999,726,0,-.142E-5,0
DS-SAR,2023-109A,2025-07-15T20:35:31.963776,15.12734984,.0001134,5.0003,258.1708,225.2807,134.7209,0,U,57481,999,10897,.40649E-3,.8247E-4,0
FENGYUN 3F,2023-111A,2025-07-16T04:45:03.048480,14.20052074,.0001754,98.7258,267.7568,70.6568,289.4798,0,U,57490,999,10118,.35361E-4,.32E-6,0
GALAXY 37 (G-37),2023-112A,2025-07-15T16:13:41.320416,1.00272539,.000194,0.0174,317.7937,159.5733,292.8261,0,U,57493,999,716,0,.56E-6,0
STARLINK-30154,2023-113A,2025-07-15T09:57:30.274272,15.02533021,.0001464,43.0020,226.9799,282.6407,77.4271,0,U,57495,999,10780,-.7666E-5,-.307E-5,0
STARLINK-30145,2023-113B,2025-07-16T03:06:32.573952,15.02531216,.0001587,43.0021,222.8943,280.3275,79.7389,0,U,57496,999,10796,.52678E-4,.508E-5,0
STARLINK-30226,2023-113C,2025-07-16T03:01:45.028704,15.02531003,.0001605,43.0022,222.8791,280.7169,79.3492,0,U,57497,999,10797,.70784E-4,.752E-5,0
STARLINK-30203,2023-113D,2025-07-15T18:48:43.999776,15.02533536,.0001688,43.0021,224.6032,283.5226,76.5428,0,U,57498,999,10804,.57662E-4,.575E-5,0
STARLINK-30169,2023-113E,2025-07-16T01:55:12.559872,15.02536613,.0001539,43.0030,210.6638,286.9662,73.1012,0,U,57499,999,10805,.33281E-4,.246E-5,0
STARLINK-30164,2023-113F,2025-07-15T18:34:19.832160,15.02537546,.0001508,43.0022,224.5242,297.5266,62.5423,0,U,57500,999,10802,.20751E-4,.77E-6,0
STARLINK-30072,2023-113G,2025-07-15T18:24:44.775360,15.02532982,.0001513,43.0020,224.4662,280.3298,79.7374,0,U,57501,999,10791,-.17768E-4,-.444E-5,0
STARLINK-30228,2023-113H,2025-07-16T00:03:53.970336,15.20903211,.0001443,42.9979,204.9899,315.5534,44.5200,0,U,57502,999,10816,.88763E-3,.19815E-3,0
STARLINK-30230,2023-113J,2025-07-15T18:39:07.604640,15.02535748,.0001562,43.0019,224.5440,278.8474,81.2191,0,U,57503,999,10791,.22805E-4,.104E-5,0
STARLINK-30213,2023-113K,2025-07-15T18:20:07.089216,15.02531106,.0001464,43.0024,225.2905,278.6347,81.4329,0,U,57504,999,10801,.49626E-5,-.137E-5,0
STARLINK-30227,2023-113L,2025-07-16T04:52:11.427456,15.02555900,.0001389,43.0019,209.5646,283.2332,76.8355,0,U,57505,999,10829,.21711E-3,.2732E-4,0
STARLINK-30212,2023-113M,2025-07-16T03:49:42.451968,15.02538512,.0001813,43.0017,223.1055,288.0399,72.0246,0,U,57506,999,10791,.70399E-4,.747E-5,0
STARLINK-30219,2023-113N,2025-07-15T08:36:09.718848,15.02542826,.0001809,43.0021,227.4285,292.9483,67.1168,0,U,57507,999,10795,-.12184E-5,-.22E-5,0
STARLINK-30074,2023-113P,2025-07-15T08:55:10.522848,15.02532531,.0001535,43.0025,226.6607,277.4438,82.6230,0,U,57508,999,10775,-.47393E-4,-.844E-5,0
STARLINK-30082,2023-113Q,2025-07-15T19:27:04.791168,15.02533501,.0001508,43.0026,224.7999,275.2041,84.8629,0,U,57509,999,10802,.11059E-4,-.54E-6,0
STARLINK-30153,2023-113R,2025-07-15T19:22:17.069664,15.02532507,.0001589,43.0024,224.7856,278.7563,81.3099,0,U,57510,999,10791,.30845E-4,.213E-5,0
STARLINK-30147,2023-113S,2025-07-16T03:35:14.992512,15.02570114,.0001857,43.0022,223.0436,289.4353,70.6289,0,U,57511,999,10807,.36501E-3,.4735E-4,0
STARLINK-30157,2023-113T,2025-07-15T16:40:14.545920,15.02532264,.0001639,43.0026,199.0977,289.1138,70.9527,0,U,57512,999,10831,-.15011E-4,-.406E-5,0
STARLINK-30168,2023-113U,2025-07-15T11:42:49.167648,15.02531366,.0001406,43.0014,226.6511,279.8440,80.2244,0,U,57513,999,10781,-.14356E-4,-.398E-5,0
STARLINK-30231,2023-113V,2025-07-15T19:17:29.274720,15.02533247,.0001272,43.0017,224.7395,274.8365,85.2332,0,U,57514,999,10802,.15699E-5,-.182E-5,0
STARLINK-30081,2023-113W,2025-07-15T18:58:18.484608,15.02535656,.0001517,43.0018,224.6604,281.5284,78.5388,0,U,57515,999,10802,.1353E-5,-.185E-5,0
STARLINK-30149,2023-113X,2025-07-15T18:43:55.387488,15.02534820,.0001312,43.0025,224.5789,289.8665,70.2035,0,U,57516,999,10792,.20773E-4,.77E-6,0
COSMOS 2569 [GLONASS-K2],2023-114A,2025-07-15T19:06:42.589728,2.13103641,.0010065,65.1085,83.9812,297.7208,62.2456,0,U,57517,999,1509,0,-.5E-7,0
HJ-2F,2023-116A,2025-07-16T04:02:42.271584,15.22477694,.0004824,97.3860,203.5006,102.5047,257.6729,0,U,57519,999,10765,.28386E-3,.6506E-4,0
STARLINK-30259,2023-115A,2025-07-15T12:21:31.851936,15.02534082,.0001546,43.0026,213.7739,281.5148,78.5521,0,U,57521,999,10774,.11351E-4,-.5E-6,0
