STARLINK-30176          
1 57477U 23107W   25196.65942238  .00000292  00000+0  36662-4 0  9994
2 57477  43.0027 186.4258 0001544 274.6856  85.3810 15.02538027109462
JUPITER 3 (ECHOSTAR 24) 
1 57479U 23108A   25195.45182518 -.00000142  00000+0  00000+0 0  9998
2 57479   0.0139  45.6556 0001446  73.5131 240.8409  1.00271942  7261
DS-SAR                  
1 57481U 23109A   25196.85800884  .00008247  00000+0  40649-3 0  9990
2 57481   5.0003 258.1708 0001134 225.2807 134.7209 15.12734984108976
FENGYUN 3F              
1 57490U 23111A   25197.19795195  .00000032  00000+0  35361-4 0  9999
2 57490  98.7258 267.7568 0001754  70.6568 289.4798 14.20052074101189
GALAXY 37 (G-37)        
1 57493U 23112A   25196.67617269  .00000056  00000+0  00000+0 0  9993
2 57493   0.0174 317.7937 0001940 159.5733 292.8261  1.00272539  7169
STARLINK-30154          
1 57495U 23113A   25196.41493373 -.00000307  00000+0 -76660-5 0  9998
2 57495  43.0020 226.9799 0001464 282.6407  77.4271 15.02533021107805
STARLINK-30145          
1 57496U 23113B   25197.12954368  .00000508  00000+0  52678-4 0  9997
2 57496  43.0021 222.8943 0001587 280.3275  79.7389 15.02531216107963
STARLINK-30226          
1 57497U 23113C   25197.12621561  .00000752  00000+0  70784-4 0  9993
2 57497  43.0022 222.8791 0001605 280.7169  79.3492 15.02531003107979
STARLINK-30203          
1 57498U 23113D   25196.78384259  .00000575  00000+0  57662-4 0  9998
2 57498  43.0021 224.6032 0001688 283.5226  76.5428 15.02533536108043
STARLINK-30169          
1 57499U 23113E   25197.08000648  .00000246  00000+0  33281-4 0  9996
2 57499  43.0030 210.6638 0001539 286.9662  73.1012 15.02536613108059
STARLINK-30164          
1 57500U 23113F   25196.77384065  .00000077  00000+0  20751-4 0  9992
2 57500  43.0022 224.5242 0001508 297.5266  62.5423 15.02537546108023
STARLINK-30072          
1 57501U 23113G   25196.76718490 -.00000444  00000+0 -17768-4 0  9999
2 57501  43.0020 224.4662 0001513 280.3298  79.7374 15.02532982107919
STARLINK-30228          
1 57502U 23113H   25197.00270799  .00019815  00000+0  88763-3 0  9995
2 57502  42.9979 204.9899 0001443 315.5534  44.5200 15.20903211108165
STARLINK-30230          
1 57503U 23113J   25196.77717135  .00000104  00000+0  22805-4 0  9996
2 57503  43.0019 224.5440 0001562 278.8474  81.2191 15.02535748107914
STARLINK-30213          
1 57504U 23113K   25196.76397094 -.00000137  00000+0  49626-5 0  9992
2 57504  43.0024 225.2905 0001464 278.6347  81.4329 15.02531106108014
STARLINK-30227          
1 57505U 23113L   25197.20291004  .00002732  00000+0  21711-3 0  9992
2 57505  43.0019 209.5646 0001389 283.2332  76.8355 15.02555900108293
STARLINK-30212          
1 57506U 23113M   25197.15951912  .00000747  00000+0  70399-4 0  9999
2 57506  43.0017 223.1055 0001813 288.0399  72.0246 15.02538512107911
STARLINK-30219          
1 57507U 23113N   25196.35844582 -.00000220  00000+0 -12184-5 0  9992
2 57507  43.0021 227.4285 0001809 292.9483  67.1168 15.02542826107957
STARLINK-30074          
1 57508U 23113P   25196.37164957 -.00000844  00000+0 -47393-4 0  9997
2 57508  43.0025 226.6607 0001535 277.4438  82.6230 15.02532531107757
STARLINK-30082          
1 57509U 23113Q   25196.81047212 -.00000054  00000+0  11059-4 0  9993
2 57509  43.0026 224.7999 0001508 275.2041  84.8629 15.02533501108023
STARLINK-30153          
1 57510U 23113R   25196.80714201  .00000213  00000+0  30845-4 0  9993
2 57510  43.0024 224.7856 0001589 278.7563  81.3099 15.02532507107916
STARLINK-30147          
1 57511U 23113S   25197.14947908  .00004735  00000+0  36501-3 0  9991
2 57511  43.0022 223.0436 0001857 289.4353  70.6289 15.02570114108071
STARLINK-30157          
1 57512U 23113T   25196.69461280 -.00000406  00000+0 -15011-4 0  9992
2 57512  43.0026 199.0977 0001639 289.1138  70.9527 15.02532264108313
STARLINK-30168          
1 57513U 23113U   25196.48806907 -.00000398  00000+0 -14356-4 0  9990
2 57513  43.0014 226.6511 0001406 279.8440  80.2244 15.02531366107812
STARLINK-30231          
1 57514U 23113V   25196.80381105 -.00000182  00000+0  15699-5 0  9997
2 57514  43.0017 224.7395 0001272 274.8365  85.2332 15.02533247108024
STARLINK-30081          
1 57515U 23113W   25196.79049172 -.00000185  00000+0  13530-5 0  9996
2 57515  43.0018 224.6604 0001517 281.5284  78.5388 15.02535656108027
STARLINK-30149          
1 57516U 23113X   25196.78050217  .00000077  00000+0  20773-4 0  9993
2 57516  43.0025 224.5789 0001312 289.8665  70.2035 15.02534820107924
COSMOS 2569 [GLONASS-K2]
1 57517U 23114A   25196.79632627 -.00000005  00000+0  00000+0 0  9995
2 57517  65.1085  83.9812 0010065 297.7208  62.2456  2.13103641 15091
HJ-2F                   
1 57519U 23116A   25197.16854481  .00006506  00000+0  28386-3 0  9997
2 57519  97.3860 203.5006 0004824 102.5047 257.6729 15.22477694107659
STARLINK-30259          
1 57521U 23115A   25196.51495199 -.00000050  00000+0  11351-4 0  9998
2 57521  43.0026 213.7739 0001546 281.5148  78.5521 15.02534082107741
